{
 "type": "FeatureCollection",
 "features": [
  {
   "type": "Feature",
   "geometry": {
    "type": "Polygon",
    "coordinates": [
     [
      [
       72,
       30
      ],
      [
       90,
       29
      ],
      [
       105,
       33
      ],
      [
       122,
       31
      ],
      [
       122,
       22
      ],
      [
       110,
       5
      ],
      [
       115,
       -9
      ],
      [
       95,
       -7
      ],
      [
       95,
       10
      ],
      [
       88,
       21
      ],
      [
       72,
       23
      ],
      [
       72,
       30
      ]
     ]
    ]
   },
   "properties": {
    "status": "confirmed",
    "source": "validation-suite: N India to S China, Indochina & Indonesia (Archer 1994)",
    "note": "Coarse literature outline used by the validation suite. Review and refine in the native-range editor before operational use."
   }
  }
 ]
}